[{"OBJECT_NAME":"STARLINK-5635","OBJECT_ID":"2023-013AN","EPOCH":"2026-02-03T05:33:57.505248","MEAN_MOTION":15.02555019,"ECCENTRICITY":0.00012967,"INCLINATION":43.0027,"RA_OF_ASC_NODE":114.7569,"ARG_OF_PERICENTER":277.1091,"MEAN_ANOMALY":82.9604,"EPHEMERIS_TYPE":0,"CLASSIFICATION_TYPE":"U","NORAD_CAT_ID":55367,"ELEMENT_SET_NO":999,"REV_AT_EPOCH":16667,"BSTAR":0.00012583921,"MEAN_MOTION_DOT":1.497e-5,"MEAN_MOTION_DDOT":0},{"OBJECT_NAME":"STARLINK-5625","OBJECT_ID":"2023-013AP","EPOCH":"2026-02-03T06:26:31.930368","MEAN_MOTION":15.02537615,"ECCENTRICITY":0.0001387,"INCLINATION":43.0037,"RA_OF_ASC_NODE":114.1786,"ARG_OF_PERICENTER":274.0559,"MEAN_ANOMALY":86.0125,"EPHEMERIS_TYPE":0,"CLASSIFICATION_TYPE":"U","NORAD_CAT_ID":55368,"ELEMENT_SET_NO":999,"REV_AT_EPOCH":16668,"BSTAR":7.8433533e-5,"MEAN_MOTION_DOT":8.56e-6,"MEAN_MOTION_DDOT":0},{"OBJECT_NAME":"STARLINK-5644","OBJECT_ID":"2023-013AQ","EPOCH":"2026-02-02T08:19:58.836864","MEAN_MOTION":15.02537573,"ECCENTRICITY":0.00015976,"INCLINATION":43.0037,"RA_OF_ASC_NODE":145.3066,"ARG_OF_PERICENTER":273.6816,"MEAN_ANOMALY":86.3843,"EPHEMERIS_TYPE":0,"CLASSIFICATION_TYPE":"U","NORAD_CAT_ID":55369,"ELEMENT_SET_NO":999,"REV_AT_EPOCH":16624,"BSTAR":7.2235963e-5,"MEAN_MOTION_DOT":7.72e-6,"MEAN_MOTION_DDOT":0},{"OBJECT_NAME":"STARLINK-5027","OBJECT_ID":"2023-013AR","EPOCH":"2026-02-02T16:25:01.013664","MEAN_MOTION":15.02536038,"ECCENTRICITY":0.00014815,"INCLINATION":43.0039,"RA_OF_ASC_NODE":143.537,"ARG_OF_PERICENTER":275.4199,"MEAN_ANOMALY":84.6474,"EPHEMERIS_TYPE":0,"CLASSIFICATION_TYPE":"U","NORAD_CAT_ID":55370,"ELEMENT_SET_NO":999,"REV_AT_EPOCH":16629,"BSTAR":3.3561512e-5,"MEAN_MOTION_DOT":2.5e-6,"MEAN_MOTION_DDOT":0},{"OBJECT_NAME":"STARLINK-5590","OBJECT_ID":"2023-013AS","EPOCH":"2026-02-03T06:25:47.670240","MEAN_MOTION":15.02535389,"ECCENTRICITY":0.00017264,"INCLINATION":43.0067,"RA_OF_ASC_NODE":140.1742,"ARG_OF_PERICENTER":284.6762,"MEAN_ANOMALY":75.3889,"EPHEMERIS_TYPE":0,"CLASSIFICATION_TYPE":"U","NORAD_CAT_ID":55371,"ELEMENT_SET_NO":999,"REV_AT_EPOCH":16730,"BSTAR":-7.2435708e-5,"MEAN_MOTION_DOT":-1.182e-5,"MEAN_MOTION_DDOT":0},{"OBJECT_NAME":"STARLINK-5568","OBJECT_ID":"2023-013AT","EPOCH":"2026-02-02T14:38:05.744544","MEAN_MOTION":15.02538908,"ECCENTRICITY":0.00011922,"INCLINATION":43.0013,"RA_OF_ASC_NODE":143.8364,"ARG_OF_PERICENTER":273.0316,"MEAN_ANOMALY":87.039,"EPHEMERIS_TYPE":0,"CLASSIFICATION_TYPE":"U","NORAD_CAT_ID":55372,"ELEMENT_SET_NO":999,"REV_AT_EPOCH":16628,"BSTAR":6.7796474e-5,"MEAN_MOTION_DOT":7.12e-6,"MEAN_MOTION_DDOT":0},{"OBJECT_NAME":"STARLINK-5581","OBJECT_ID":"2023-013AU","EPOCH":"2026-02-02T13:32:44.714688","MEAN_MOTION":15.02539903,"ECCENTRICITY":0.00017371,"INCLINATION":43.0015,"RA_OF_ASC_NODE":144.346,"ARG_OF_PERICENTER":270.168,"MEAN_ANOMALY":89.8963,"EPHEMERIS_TYPE":0,"CLASSIFICATION_TYPE":"U","NORAD_CAT_ID":55373,"ELEMENT_SET_NO":999,"REV_AT_EPOCH":16627,"BSTAR":-9.8479673e-5,"MEAN_MOTION_DOT":-1.534e-5,"MEAN_MOTION_DDOT":0},{"OBJECT_NAME":"STARLINK-5578","OBJECT_ID":"2023-013AV","EPOCH":"2026-02-03T06:30:35.129952","MEAN_MOTION":15.02548247,"ECCENTRICITY":0.00011775,"INCLINATION":43.0016,"RA_OF_ASC_NODE":140.1991,"ARG_OF_PERICENTER":272.4378,"MEAN_ANOMALY":87.6329,"EPHEMERIS_TYPE":0,"CLASSIFICATION_TYPE":"U","NORAD_CAT_ID":55374,"ELEMENT_SET_NO":999,"REV_AT_EPOCH":16638,"BSTAR":-2.4540179e-5,"MEAN_MOTION_DOT":-5.35e-6,"MEAN_MOTION_DDOT":0},{"OBJECT_NAME":"STARLINK-5588","OBJECT_ID":"2023-013AW","EPOCH":"2026-02-03T06:16:11.986176","MEAN_MOTION":15.02534638,"ECCENTRICITY":0.0001159,"INCLINATION":43.0021,"RA_OF_ASC_NODE":140.1249,"ARG_OF_PERICENTER":269.5168,"MEAN_ANOMALY":90.5541,"EPHEMERIS_TYPE":0,"CLASSIFICATION_TYPE":"U","NORAD_CAT_ID":55375,"ELEMENT_SET_NO":999,"REV_AT_EPOCH":16638,"BSTAR":2.1149987e-5,"MEAN_MOTION_DOT":8.2e-7,"MEAN_MOTION_DDOT":0},{"OBJECT_NAME":"STARLINK-5586","OBJECT_ID":"2023-013AX","EPOCH":"2026-02-02T15:17:11.217696","MEAN_MOTION":15.0254257,"ECCENTRICITY":0.0001253,"INCLINATION":43.003,"RA_OF_ASC_NODE":118.0298,"ARG_OF_PERICENTER":272.1919,"MEAN_ANOMALY":87.878,"EPHEMERIS_TYPE":0,"CLASSIFICATION_TYPE":"U","NORAD_CAT_ID":55376,"ELEMENT_SET_NO":999,"REV_AT_EPOCH":16658,"BSTAR":9.4186942e-5,"MEAN_MOTION_DOT":1.069e-5,"MEAN_MOTION_DDOT":0},{"OBJECT_NAME":"STARLINK-5567","OBJECT_ID":"2023-013AY","EPOCH":"2026-02-02T15:35:28.010400","MEAN_MOTION":15.02535422,"ECCENTRICITY":0.00014249,"INCLINATION":43.0033,"RA_OF_ASC_NODE":143.2746,"ARG_OF_PERICENTER":264.6007,"MEAN_ANOMALY":95.4673,"EPHEMERIS_TYPE":0,"CLASSIFICATION_TYPE":"U","NORAD_CAT_ID":55377,"ELEMENT_SET_NO":999,"REV_AT_EPOCH":16629,"BSTAR":3.7375992e-5,"MEAN_MOTION_DOT":3.01e-6,"MEAN_MOTION_DDOT":0},{"OBJECT_NAME":"STARLINK-5572","OBJECT_ID":"2023-013AZ","EPOCH":"2026-02-03T06:20:59.780256","MEAN_MOTION":15.0253537,"ECCENTRICITY":0.00011532,"INCLINATION":43.0019,"RA_OF_ASC_NODE":140.1493,"ARG_OF_PERICENTER":264.8067,"MEAN_ANOMALY":95.2644,"EPHEMERIS_TYPE":0,"CLASSIFICATION_TYPE":"U","NORAD_CAT_ID":55378,"ELEMENT_SET_NO":999,"REV_AT_EPOCH":16638,"BSTAR":1.9110484e-5,"MEAN_MOTION_DOT":5.5e-7,"MEAN_MOTION_DDOT":0},{"OBJECT_NAME":"STARLINK-5569","OBJECT_ID":"2023-013BA","EPOCH":"2026-02-02T15:45:03.697920","MEAN_MOTION":15.02533975,"ECCENTRICITY":0.0001549,"INCLINATION":43.0053,"RA_OF_ASC_NODE":143.3247,"ARG_OF_PERICENTER":266.4934,"MEAN_ANOMALY":93.5731,"EPHEMERIS_TYPE":0,"CLASSIFICATION_TYPE":"U","NORAD_CAT_ID":55379,"ELEMENT_SET_NO":999,"REV_AT_EPOCH":16629,"BSTAR":1.9030549e-5,"MEAN_MOTION_DOT":5.3e-7,"MEAN_MOTION_DDOT":0},{"OBJECT_NAME":"STARLINK-5571","OBJECT_ID":"2023-013BB","EPOCH":"2026-02-03T06:21:44.176032","MEAN_MOTION":15.02535653,"ECCENTRICITY":0.00011161,"INCLINATION":43.0014,"RA_OF_ASC_NODE":114.1529,"ARG_OF_PERICENTER":268.1154,"MEAN_ANOMALY":91.9561,"EPHEMERIS_TYPE":0,"CLASSIFICATION_TYPE":"U","NORAD_CAT_ID":55380,"ELEMENT_SET_NO":999,"REV_AT_EPOCH":16668,"BSTAR":-2.2412402e-5,"MEAN_MOTION_DOT":-5.06e-6,"MEAN_MOTION_DDOT":0},{"OBJECT_NAME":"STARLINK-5575","OBJECT_ID":"2023-013BC","EPOCH":"2026-02-02T15:40:16.192416","MEAN_MOTION":15.02528784,"ECCENTRICITY":0.00013067,"INCLINATION":43.0033,"RA_OF_ASC_NODE":143.2984,"ARG_OF_PERICENTER":270.4429,"MEAN_ANOMALY":89.6263,"EPHEMERIS_TYPE":0,"CLASSIFICATION_TYPE":"U","NORAD_CAT_ID":55381,"ELEMENT_SET_NO":999,"REV_AT_EPOCH":16629,"BSTAR":-1.0226405e-5,"MEAN_MOTION_DOT":-3.42e-6,"MEAN_MOTION_DDOT":0},{"OBJECT_NAME":"STARLINK-5576","OBJECT_ID":"2023-013BD","EPOCH":"2026-02-03T06:11:24.453024","MEAN_MOTION":15.02541246,"ECCENTRICITY":0.00013946,"INCLINATION":43.0008,"RA_OF_ASC_NODE":140.0979,"ARG_OF_PERICENTER":268.2564,"MEAN_ANOMALY":91.8119,"EPHEMERIS_TYPE":0,"CLASSIFICATION_TYPE":"U","NORAD_CAT_ID":55382,"ELEMENT_SET_NO":999,"REV_AT_EPOCH":16638,"BSTAR":0.00016115193,"MEAN_MOTION_DOT":1.974e-5,"MEAN_MOTION_DDOT":0}]
