STARLINK-5635           
1 55367U 23013AN  26034.23191557  .00001497  00000+0  12584-3 0  9996
2 55367  43.0027 114.7569 0001296 277.1091  82.9604 15.02555019166670
STARLINK-5625           
1 55368U 23013AP  26034.26842512  .00000856  00000+0  78434-4 0  9999
2 55368  43.0037 114.1786 0001387 274.0559  86.0125 15.02537615166689
STARLINK-5644           
1 55369U 23013AQ  26033.34720876  .00000772  00000+0  72236-4 0  9997
2 55369  43.0037 145.3066 0001597 273.6816  86.3843 15.02537573166246
STARLINK-5027           
1 55370U 23013AR  26033.68403951  .00000250  00000+0  33562-4 0  9998
2 55370  43.0039 143.5370 0001481 275.4199  84.6474 15.02536038166295
STARLINK-5590           
1 55371U 23013AS  26034.26791285 -.00001182  00000+0 -72436-4 0  9994
2 55371  43.0067 140.1742 0001726 284.6762  75.3889 15.02535389167301
STARLINK-5568           
1 55372U 23013AT  26033.60978871  .00000712  00000+0  67796-4 0  9999
2 55372  43.0013 143.8364 0001192 273.0316  87.0390 15.02538908166280
STARLINK-5581           
1 55373U 23013AU  26033.56440642 -.00001534  00000+0 -98480-4 0  9994
2 55373  43.0015 144.3460 0001737 270.1680  89.8963 15.02539903166274
STARLINK-5578           
1 55374U 23013AV  26034.27123993 -.00000535  00000+0 -24540-4 0  9997
2 55374  43.0016 140.1991 0001177 272.4378  87.6329 15.02548247166381
STARLINK-5588           
1 55375U 23013AW  26034.26124984  .00000082  00000+0  21150-4 0  9997
2 55375  43.0021 140.1249 0001159 269.5168  90.5541 15.02534638166386
STARLINK-5586           
1 55376U 23013AX  26033.63693539  .00001069  00000+0  94187-4 0  9991
2 55376  43.0030 118.0298 0001253 272.1919  87.8780 15.02542570166584
STARLINK-5567           
1 55377U 23013AY  26033.64962975  .00000301  00000+0  37376-4 0  9991
2 55377  43.0033 143.2746 0001424 264.6007  95.4673 15.02535422166292
STARLINK-5572           
1 55378U 23013AZ  26034.26458079  .00000055  00000+0  19110-4 0  9998
2 55378  43.0019 140.1493 0001153 264.8067  95.2644 15.02535370166387
STARLINK-5569           
1 55379U 23013BA  26033.65629280  .00000053  00000+0  19031-4 0  9995
2 55379  43.0053 143.3247 0001549 266.4934  93.5731 15.02533975166295
STARLINK-5571           
1 55380U 23013BB  26034.26509463 -.00000506  00000+0 -22412-4 0  9997
2 55380  43.0014 114.1529 0001116 268.1154  91.9561 15.02535653166687
STARLINK-5575           
1 55381U 23013BC  26033.65296519 -.00000342  00000+0 -10226-4 0  9993
2 55381  43.0033 143.2984 0001306 270.4429  89.6263 15.02528784166296
STARLINK-5576           
1 55382U 23013BD  26034.25792191  .00001974  00000+0  16115-3 0  9990
2 55382  43.0008 140.0979 0001394 268.2564  91.8119 15.02541246166383
